[{"OBJECT_NAME":"STARLINK-5442","OBJECT_ID":"2022-175AC","EPOCH":"2026-02-14T02:47:17.210688","MEAN_MOTION":15.08837055,"ECCENTRICITY":0.0001179,"INCLINATION":53.2166,"RA_OF_ASC_NODE":149.7053,"ARG_OF_PERICENTER":96.349,"MEAN_ANOMALY":263.7637,"EPHEMERIS_TYPE":0,"CLASSIFICATION_TYPE":"U","NORAD_CAT_ID":54784,"ELEMENT_SET_NO":999,"REV_AT_EPOCH":17636,"BSTAR":8.1802578e-5,"MEAN_MOTION_DOT":1.014e-5,"MEAN_MOTION_DDOT":0},{"OBJECT_NAME":"STARLINK-5440","OBJECT_ID":"2022-175AD","EPOCH":"2026-02-14T02:46:39.136800","MEAN_MOTION":15.08839512,"ECCENTRICITY":0.00013421,"INCLINATION":53.2167,"RA_OF_ASC_NODE":94.8186,"ARG_OF_PERICENTER":93.1553,"MEAN_ANOMALY":266.9593,"EPHEMERIS_TYPE":0,"CLASSIFICATION_TYPE":"U","NORAD_CAT_ID":54785,"ELEMENT_SET_NO":999,"REV_AT_EPOCH":17713,"BSTAR":5.9512409e-5,"MEAN_MOTION_DOT":6.59e-6,"MEAN_MOTION_DDOT":0},{"OBJECT_NAME":"STARLINK-5441","OBJECT_ID":"2022-175AF","EPOCH":"2026-02-14T07:28:10.005024","MEAN_MOTION":15.08822703,"ECCENTRICITY":0.00015089,"INCLINATION":53.2174,"RA_OF_ASC_NODE":148.7908,"ARG_OF_PERICENTER":104.0029,"MEAN_ANOMALY":256.1131,"EPHEMERIS_TYPE":0,"CLASSIFICATION_TYPE":"U","NORAD_CAT_ID":54787,"ELEMENT_SET_NO":999,"REV_AT_EPOCH":17639,"BSTAR":-6.8137191e-5,"MEAN_MOTION_DOT":-1.372e-5,"MEAN_MOTION_DDOT":0},{"OBJECT_NAME":"STARLINK-5399","OBJECT_ID":"2022-175AG","EPOCH":"2026-02-13T15:49:32.327616","MEAN_MOTION":15.08842968,"ECCENTRICITY":0.00012932,"INCLINATION":53.2169,"RA_OF_ASC_NODE":136.8682,"ARG_OF_PERICENTER":92.8799,"MEAN_ANOMALY":267.2341,"EPHEMERIS_TYPE":0,"CLASSIFICATION_TYPE":"U","NORAD_CAT_ID":54788,"ELEMENT_SET_NO":999,"REV_AT_EPOCH":17650,"BSTAR":5.3234764e-5,"MEAN_MOTION_DOT":5.6e-6,"MEAN_MOTION_DDOT":0},{"OBJECT_NAME":"STARLINK-5446","OBJECT_ID":"2022-175AH","EPOCH":"2026-02-14T04:31:56.200224","MEAN_MOTION":15.0884725,"ECCENTRICITY":0.00016117,"INCLINATION":53.2175,"RA_OF_ASC_NODE":119.3884,"ARG_OF_PERICENTER":83.466,"MEAN_ANOMALY":276.6515,"EPHEMERIS_TYPE":0,"CLASSIFICATION_TYPE":"U","NORAD_CAT_ID":54789,"ELEMENT_SET_NO":999,"REV_AT_EPOCH":17679,"BSTAR":0.00010900934,"MEAN_MOTION_DOT":1.448e-5,"MEAN_MOTION_DDOT":0},{"OBJECT_NAME":"STARLINK-5445","OBJECT_ID":"2022-175AJ","EPOCH":"2026-02-14T05:57:24.476544","MEAN_MOTION":15.0883577,"ECCENTRICITY":0.00013221,"INCLINATION":53.2188,"RA_OF_ASC_NODE":134.1486,"ARG_OF_PERICENTER":76.3964,"MEAN_ANOMALY":283.7175,"EPHEMERIS_TYPE":0,"CLASSIFICATION_TYPE":"U","NORAD_CAT_ID":54790,"ELEMENT_SET_NO":999,"REV_AT_EPOCH":17659,"BSTAR":4.466228e-6,"MEAN_MOTION_DOT":-2.17e-6,"MEAN_MOTION_DDOT":0},{"OBJECT_NAME":"STARLINK-5425","OBJECT_ID":"2022-175AK","EPOCH":"2026-02-14T06:18:37.401696","MEAN_MOTION":15.08836469,"ECCENTRICITY":0.00016148,"INCLINATION":53.2173,"RA_OF_ASC_NODE":134.2286,"ARG_OF_PERICENTER":120.5979,"MEAN_ANOMALY":239.5172,"EPHEMERIS_TYPE":0,"CLASSIFICATION_TYPE":"U","NORAD_CAT_ID":54791,"ELEMENT_SET_NO":999,"REV_AT_EPOCH":17659,"BSTAR":5.5992589e-5,"MEAN_MOTION_DOT":6.03e-6,"MEAN_MOTION_DDOT":0},{"OBJECT_NAME":"STARLINK-5431","OBJECT_ID":"2022-175AL","EPOCH":"2026-02-14T07:17:31.795872","MEAN_MOTION":15.0883424,"ECCENTRICITY":0.00010663,"INCLINATION":53.2174,"RA_OF_ASC_NODE":148.7441,"ARG_OF_PERICENTER":97.3919,"MEAN_ANOMALY":262.7194,"EPHEMERIS_TYPE":0,"CLASSIFICATION_TYPE":"U","NORAD_CAT_ID":54792,"ELEMENT_SET_NO":999,"REV_AT_EPOCH":17639,"BSTAR":4.7393684e-5,"MEAN_MOTION_DOT":4.66e-6,"MEAN_MOTION_DDOT":0},{"OBJECT_NAME":"STARLINK-5433","OBJECT_ID":"2022-175AM","EPOCH":"2026-02-13T16:01:29.883072","MEAN_MOTION":15.08835848,"ECCENTRICITY":0.00013481,"INCLINATION":53.2177,"RA_OF_ASC_NODE":126.971,"ARG_OF_PERICENTER":93.5906,"MEAN_ANOMALY":266.524,"EPHEMERIS_TYPE":0,"CLASSIFICATION_TYPE":"U","NORAD_CAT_ID":54793,"ELEMENT_SET_NO":999,"REV_AT_EPOCH":17664,"BSTAR":-1.8502568e-5,"MEAN_MOTION_DOT":-5.82e-6,"MEAN_MOTION_DDOT":0},{"OBJECT_NAME":"STARLINK-5436","OBJECT_ID":"2022-175AP","EPOCH":"2026-02-13T12:33:27.969696","MEAN_MOTION":15.08840798,"ECCENTRICITY":0.00012262,"INCLINATION":53.218,"RA_OF_ASC_NODE":137.4398,"ARG_OF_PERICENTER":93.8065,"MEAN_ANOMALY":266.3067,"EPHEMERIS_TYPE":0,"CLASSIFICATION_TYPE":"U","NORAD_CAT_ID":54795,"ELEMENT_SET_NO":999,"REV_AT_EPOCH":17648,"BSTAR":-1.4572976e-5,"MEAN_MOTION_DOT":-5.2e-6,"MEAN_MOTION_DDOT":0},{"OBJECT_NAME":"STARLINK-5415","OBJECT_ID":"2022-175AQ","EPOCH":"2026-02-14T05:52:05.747808","MEAN_MOTION":15.08841794,"ECCENTRICITY":0.00013462,"INCLINATION":53.217,"RA_OF_ASC_NODE":134.1206,"ARG_OF_PERICENTER":100.2602,"MEAN_ANOMALY":259.8542,"EPHEMERIS_TYPE":0,"CLASSIFICATION_TYPE":"U","NORAD_CAT_ID":54796,"ELEMENT_SET_NO":999,"REV_AT_EPOCH":17659,"BSTAR":-4.482163e-6,"MEAN_MOTION_DOT":-3.59e-6,"MEAN_MOTION_DDOT":0},{"OBJECT_NAME":"STARLINK-5435","OBJECT_ID":"2022-175AR","EPOCH":"2026-02-13T15:51:35.083872","MEAN_MOTION":15.08835893,"ECCENTRICITY":0.00012693,"INCLINATION":53.2172,"RA_OF_ASC_NODE":151.8348,"ARG_OF_PERICENTER":96.1188,"MEAN_ANOMALY":263.9948,"EPHEMERIS_TYPE":0,"CLASSIFICATION_TYPE":"U","NORAD_CAT_ID":54797,"ELEMENT_SET_NO":999,"REV_AT_EPOCH":17629,"BSTAR":-4.670142e-6,"MEAN_MOTION_DOT":-3.62e-6,"MEAN_MOTION_DDOT":0},{"OBJECT_NAME":"STARLINK-5420","OBJECT_ID":"2022-175AS","EPOCH":"2026-02-14T05:48:07.789248","MEAN_MOTION":15.08834127,"ECCENTRICITY":0.00012522,"INCLINATION":53.2165,"RA_OF_ASC_NODE":124.1473,"ARG_OF_PERICENTER":97.9625,"MEAN_ANOMALY":262.1509,"EPHEMERIS_TYPE":0,"CLASSIFICATION_TYPE":"U","NORAD_CAT_ID":54798,"ELEMENT_SET_NO":999,"REV_AT_EPOCH":17673,"BSTAR":6.4331552e-5,"MEAN_MOTION_DOT":7.36e-6,"MEAN_MOTION_DDOT":0},{"OBJECT_NAME":"STARLINK-5421","OBJECT_ID":"2022-175AT","EPOCH":"2026-02-13T15:56:11.498208","MEAN_MOTION":15.08836251,"ECCENTRICITY":0.00011453,"INCLINATION":53.2171,"RA_OF_ASC_NODE":126.9386,"ARG_OF_PERICENTER":90.7734,"MEAN_ANOMALY":269.339,"EPHEMERIS_TYPE":0,"CLASSIFICATION_TYPE":"U","NORAD_CAT_ID":54799,"ELEMENT_SET_NO":999,"REV_AT_EPOCH":17664,"BSTAR":9.79885e-6,"MEAN_MOTION_DOT":-1.32e-6,"MEAN_MOTION_DDOT":0},{"OBJECT_NAME":"STARLINK-5428","OBJECT_ID":"2022-175AU","EPOCH":"2026-02-14T05:59:23.064000","MEAN_MOTION":15.08843986,"ECCENTRICITY":0.00014021,"INCLINATION":53.2172,"RA_OF_ASC_NODE":139.1218,"ARG_OF_PERICENTER":96.3399,"MEAN_ANOMALY":263.7753,"EPHEMERIS_TYPE":0,"CLASSIFICATION_TYPE":"U","NORAD_CAT_ID":54800,"ELEMENT_SET_NO":999,"REV_AT_EPOCH":17652,"BSTAR":4.3925585e-5,"MEAN_MOTION_DOT":4.11e-6,"MEAN_MOTION_DDOT":0},{"OBJECT_NAME":"STARLINK-5429","OBJECT_ID":"2022-175AV","EPOCH":"2026-02-13T16:48:26.822016","MEAN_MOTION":15.08836716,"ECCENTRICITY":0.00012863,"INCLINATION":53.217,"RA_OF_ASC_NODE":151.3719,"ARG_OF_PERICENTER":87.8573,"MEAN_ANOMALY":272.2566,"EPHEMERIS_TYPE":0,"CLASSIFICATION_TYPE":"U","NORAD_CAT_ID":54801,"ELEMENT_SET_NO":999,"REV_AT_EPOCH":17630,"BSTAR":1.2279632e-5,"MEAN_MOTION_DOT":-9.2e-7,"MEAN_MOTION_DDOT":0},{"OBJECT_NAME":"STARLINK-5426","OBJECT_ID":"2022-175AW","EPOCH":"2026-02-14T06:50:20.062752","MEAN_MOTION":15.08838922,"ECCENTRICITY":0.00013787,"INCLINATION":53.2166,"RA_OF_ASC_NODE":93.6472,"ARG_OF_PERICENTER":96.5252,"MEAN_ANOMALY":263.5897,"EPHEMERIS_TYPE":0,"CLASSIFICATION_TYPE":"U","NORAD_CAT_ID":54802,"ELEMENT_SET_NO":999,"REV_AT_EPOCH":17716,"BSTAR":-1.699854e-6,"MEAN_MOTION_DOT":-3.15e-6,"MEAN_MOTION_DDOT":0},{"OBJECT_NAME":"STARLINK-5430","OBJECT_ID":"2022-175AX","EPOCH":"2026-02-14T07:22:49.995840","MEAN_MOTION":15.08834426,"ECCENTRICITY":0.00013709,"INCLINATION":53.2169,"RA_OF_ASC_NODE":148.7479,"ARG_OF_PERICENTER":104.7753,"MEAN_ANOMALY":255.3391,"EPHEMERIS_TYPE":0,"CLASSIFICATION_TYPE":"U","NORAD_CAT_ID":54803,"ELEMENT_SET_NO":999,"REV_AT_EPOCH":17639,"BSTAR":2.6453632e-5,"MEAN_MOTION_DOT":1.33e-6,"MEAN_MOTION_DDOT":0},{"OBJECT_NAME":"STARLINK-5422","OBJECT_ID":"2022-175AY","EPOCH":"2026-02-14T05:20:16.037376","MEAN_MOTION":15.08833617,"ECCENTRICITY":0.00012428,"INCLINATION":53.2162,"RA_OF_ASC_NODE":133.9858,"ARG_OF_PERICENTER":86.1347,"MEAN_ANOMALY":273.9788,"EPHEMERIS_TYPE":0,"CLASSIFICATION_TYPE":"U","NORAD_CAT_ID":54804,"ELEMENT_SET_NO":999,"REV_AT_EPOCH":17659,"BSTAR":6.8345311e-5,"MEAN_MOTION_DOT":8.0e-6,"MEAN_MOTION_DDOT":0},{"OBJECT_NAME":"STARLINK-5417","OBJECT_ID":"2022-175AZ","EPOCH":"2026-02-13T13:52:56.278560","MEAN_MOTION":15.08838686,"ECCENTRICITY":0.00013795,"INCLINATION":53.2178,"RA_OF_ASC_NODE":137.0753,"ARG_OF_PERICENTER":82.549,"MEAN_ANOMALY":277.5659,"EPHEMERIS_TYPE":0,"CLASSIFICATION_TYPE":"U","NORAD_CAT_ID":54805,"ELEMENT_SET_NO":999,"REV_AT_EPOCH":17649,"BSTAR":2.3073284e-5,"MEAN_MOTION_DOT":7.9e-7,"MEAN_MOTION_DDOT":0},{"OBJECT_NAME":"STARLINK-5412","OBJECT_ID":"2022-175BA","EPOCH":"2026-02-14T05:30:52.669728","MEAN_MOTION":15.08835861,"ECCENTRICITY":0.00012474,"INCLINATION":53.217,"RA_OF_ASC_NODE":134.0315,"ARG_OF_PERICENTER":90.5328,"MEAN_ANOMALY":269.5807,"EPHEMERIS_TYPE":0,"CLASSIFICATION_TYPE":"U","NORAD_CAT_ID":54806,"ELEMENT_SET_NO":999,"REV_AT_EPOCH":17659,"BSTAR":8.8225929e-5,"MEAN_MOTION_DOT":1.116e-5,"MEAN_MOTION_DDOT":0},{"OBJECT_NAME":"STARLINK-5410","OBJECT_ID":"2022-175BB","EPOCH":"2026-02-13T13:42:19.467360","MEAN_MOTION":15.0883865,"ECCENTRICITY":0.00014187,"INCLINATION":53.2176,"RA_OF_ASC_NODE":137.0277,"ARG_OF_PERICENTER":82.6062,"MEAN_ANOMALY":277.5092,"EPHEMERIS_TYPE":0,"CLASSIFICATION_TYPE":"U","NORAD_CAT_ID":54807,"ELEMENT_SET_NO":999,"REV_AT_EPOCH":17649,"BSTAR":5.4370014e-5,"MEAN_MOTION_DOT":5.77e-6,"MEAN_MOTION_DDOT":0},{"OBJECT_NAME":"STARLINK-5413","OBJECT_ID":"2022-175BC","EPOCH":"2026-02-14T04:58:30.885888","MEAN_MOTION":15.08839875,"ECCENTRICITY":0.00014571,"INCLINATION":53.2175,"RA_OF_ASC_NODE":119.7122,"ARG_OF_PERICENTER":67.1166,"MEAN_ANOMALY":292.998,"EPHEMERIS_TYPE":0,"CLASSIFICATION_TYPE":"U","NORAD_CAT_ID":54808,"ELEMENT_SET_NO":999,"REV_AT_EPOCH":17679,"BSTAR":2.2198202e-5,"MEAN_MOTION_DOT":6.5e-7,"MEAN_MOTION_DDOT":0}]
